{"fetched_at":"2026-03-30T06:02:59Z","count":15439,"tles":[{"name":"STARLINK-31809","line1":"1 59743U 24090P   26087.66899373 -.00001714  00000+0 -52795-4 0  9993","line2":"2 59743  43.0055  69.3132 0000865 242.9230 117.1534 15.27577647106428","category":"Starlink"}]}